{
  "fetched_at": "2026-05-02T07:26:10.647663Z",
  "source": "celestrak.org/NORAD/elements/gp.php?GROUP=active",
  "satellites": {
    "42969": {
      "name": "SENTINEL-5P",
      "line1": "1 42969U 17064A   26121.82195706  .00000044  00000+0  41928-4 0  9993",
      "line2": "2 42969  98.7947  64.2875 0001228  79.9164 280.2151 14.19510915442989"
    },
    "25994": {
      "name": "TERRA",
      "line1": "1 25994U 99068A   26121.92635612  .00000395  00000+0  89448-4 0  9990",
      "line2": "2 25994  97.9494 173.2985 0002897  44.3083   6.7958 14.61065519402858"
    },
    "27424": {
      "name": "AQUA",
      "line1": "1 27424U 02022A   26121.92269537  .00000836  00000+0  17633-3 0  9999",
      "line2": "2 27424  98.4251  90.2925 0002110  89.4897 295.9563 14.62084894276512"
    },
    "37849": {
      "name": "SUOMI NPP",
      "line1": "1 37849U 11061A   26121.96054387  .00000076  00000+0  57147-4 0  9994",
      "line2": "2 37849  98.7933  63.1591 0002837  93.3903 266.7598 14.19507228751885"
    },
    "43013": {
      "name": "NOAA 20 (JPSS-1)",
      "line1": "1 43013U 17073A   26121.83299660  .00000051  00000+0  45039-4 0  9994",
      "line2": "2 43013  98.7753  61.7128 0002008  65.2657 294.8728 14.19548730437891"
    },
    "54234": {
      "name": "NOAA 21 (JPSS-2)",
      "line1": "1 54234U 22150A   26121.86721119  .00000068  00000+0  52962-4 0  9996",
      "line2": "2 54234  98.7041  61.4399 0001534  10.9160 349.2050 14.19556806179972"
    },
    "39084": {
      "name": "LANDSAT 8",
      "line1": "1 39084U 13008A   26121.94765688  .00000319  00000+0  80657-4 0  9993",
      "line2": "2 39084  98.1847 192.7753 0001261 102.8928 257.2412 14.57136110691162"
    },
    "49260": {
      "name": "LANDSAT 9",
      "line1": "1 49260U 21088A   26121.63880409  .00000378  00000+0  93762-4 0  9998",
      "line2": "2 49260  98.1868 192.5465 0001310 105.9900 254.1443 14.57124935244222"
    },
    "40697": {
      "name": "SENTINEL-2A",
      "line1": "1 40697U 15028A   26120.87202089  .00000077  00000+0  45978-4 0  9999",
      "line2": "2 40697  98.5628 196.3969 0001276  84.4074 275.7254 14.30824654566963"
    },
    "42063": {
      "name": "SENTINEL-2B",
      "line1": "1 42063U 17013A   26121.91376894 -.00000044  00000+0 -86010-8 0  9998",
      "line2": "2 42063  98.5653 197.3414 0001232  90.1113 270.0211 14.30815313478028"
    },
    "41335": {
      "name": "SENTINEL-3A",
      "line1": "1 41335U 16011A   26121.93083277  .00000003  00000+0  19172-4 0  9992",
      "line2": "2 41335  98.6267 189.9733 0000983 101.4148 258.7143 14.26732652531462"
    },
    "43437": {
      "name": "SENTINEL-3B",
      "line1": "1 43437U 18039A   26121.90399674  .00000126  00000+0  70037-4 0  9990",
      "line2": "2 43437  98.6266 190.0948 0001597  88.3999 271.7364 14.26735474417521"
    },
    "38771": {
      "name": "METOP-B",
      "line1": "1 38771U 12049A   26121.94235705  .00000109  00000+0  69673-4 0  9993",
      "line2": "2 38771  98.6541 174.3557 0003527 113.2457 246.9092 14.21434825706697"
    },
    "43689": {
      "name": "METOP-C",
      "line1": "1 43689U 18087A   26119.57089331  .00000115  00000+0  72486-4 0  9996",
      "line2": "2 43689  98.6676 180.0552 0000665  39.0689 321.0536 14.21512722387923"
    },
    "56128": {
      "name": "STARLINK-6122",
      "line1": "1 56128U 23046AN  26121.50854825  .00001125  00000+0  51636-4 0  9999",
      "line2": "2 56128  43.0034 209.0763 0001723 278.6245  81.4411 15.26732621170273"
    },
    "49055": {
      "name": "STAR ONE D2",
      "line1": "1 49055U 21069A   26121.89904535 -.00000259  00000+0  00000+0 0  9991",
      "line2": "2 49055   0.0230 134.4655 0001164 289.2752  49.7526  1.00271514 17489"
    },
    "54743": {
      "name": "METEOSAT-12 (MTG-I1)",
      "line1": "1 54743U 22170C   26121.91282539 -.00000002  00000+0  00000+0 0  9997",
      "line2": "2 54743   0.7298  23.2146 0001094 352.7678 172.1123  1.00271016 12515"
    }
  }
}